SL-14 R/B               
1 19574U 88093B   25122.51869924  .00000729  00000+0  81810-4 0  9999
2 19574  82.5306 334.0417 0020549 352.0400  52.3003 14.85287304954843
SL-16 R/B               
1 19650U 88102B   25122.61048202 -.00000164  00000+0 -58649-4 0  9993
2 19650  70.9984  86.0043 0012376 130.7777 229.4423 14.16099377882856
INTERCOSMOS 24          
1 20261U 89080A   25122.51054510  .00000474  00000+0  14064-3 0  9991
2 20261  82.6036 306.7613 1189757 294.6225  53.5542 12.58968129627631
SL-14 R/B               
1 20262U 89080C   25122.60990415  .00000394  00000+0  11315-3 0  9992
2 20262  82.5973  12.9266 1231188 175.6918 185.6066 12.50273237621277
DELTA 1 R/B             
1 20323U 89089B   25122.43624990  .00000779  00000+0  20228-3 0  9992
2 20323  97.1095  13.8221 0070196  26.8618 333.6187 14.50359708850617
ARIANE 40 R/B           
1 20443U 90005H   25122.60263021  .00000552  00000+0  19023-3 0  9998
2 20443  98.3485 186.7501 0011227  64.6761 295.5589 14.39606441848048
DELTA 2 R/B(1)          
1 20453U 90008B   25122.36428772  .00036091  00000+0  85618-3 0  9991
2 20453  35.6116  11.2271 0146986 312.0655  46.7649 15.30197727878098
COSMOS 2058             
1 20465U 90010A   25122.61844692  .00005249  00000+0  33361-3 0  9997
2 20465  82.4837 352.9815 0010386 324.5493  35.5044 15.08600530895306
SL-14 R/B               
1 20466U 90010B   25122.58397901  .00000726  00000+0  85838-4 0  9992
2 20466  82.5050 199.4766 0018559 242.9555 116.9766 14.83223150882364
SL-14 R/B               
1 20511U 90018B   25122.43871220  .00000680  00000+0  82942-4 0  9998
2 20511  82.5206 153.9519 0017342  40.4291 319.8208 14.81806764876483
HST                     
1 20580U 90037B   25122.04212766  .00009493  00000+0  36363-3 0  9992
2 20580  28.4694 357.5865 0001995 307.7581  52.2832 15.24781728725634
SL-16 R/B               
1 20625U 90046B   25122.57640649 -.00000151  00000+0 -53153-4 0  9996
2 20625  70.9993 231.2705 0012295  51.6684 308.5541 14.14958349804380
COSMOS 2084             
1 20663U 90055A   25122.52178232  .00005839  00000+0  42096-3 0  9996
2 20663  62.7910 314.9311 0068174 149.9434 210.5607 15.03371925889503
SL-6 R/B(2)             
1 20666U 90055D   25122.52772498  .00004370  00000+0  34419-3 0  9992
2 20666  62.7842 230.4089 0033808 182.0870 178.0093 15.01835450891430
SL-8 R/B                
1 20775U 90078B   25122.59053940  .00021521  00000+0  72746-3 0  9991
2 20775  82.9087 168.2640 0404854 330.9059  27.0118 14.77375647763206
SL-8 R/B                
1 21088U 91006B   25122.38656322  .00000128  00000+0  11360-3 0  9996
2 21088  82.9452  41.6237 0022212 183.6404 309.0190 13.77448371721219
OKEAN-3                 
1 21397U 91039A   25122.48532110  .00005602  00000+0  41933-3 0  9995
2 21397  82.5152 277.7614 0013525 313.6403  46.3699 15.02493820818274
COSMOS 2151             
1 21422U 91042A   25122.48507836  .00003150  00000+0  25951-3 0  9993
2 21422  82.5001  23.4362 0013654  37.2939 322.9230 14.98695438816565
SL-14 R/B               
1 21423U 91042B   25122.49538584  .00000606  00000+0  74138-4 0  9994
2 21423  82.4919 151.9487 0017119 178.4709 181.6561 14.81506612806991
ERS-1                   
1 21574U 91050A   25122.60334588  .00000626  00000+0  21587-3 0  9992
2 21574  98.7928 127.9754 0033009  46.5458 313.8466 14.39165465770982
ARIANE 40 R/B           
1 21610U 91050F   25122.56090063  .00000623  00000+0  20019-3 0  9991
2 21610  98.2425 180.6904 0001923 311.7852  48.3173 14.42600159774132
INTERCOSMOS 25          
1 21819U 91086A   25122.46802698  .00002980  00000+0  57830-3 0  9994
2 21819  82.6007 138.0389 1492690  67.3343 307.8445 12.10833690459007
SL-8 R/B                
1 21876U 92008B   25122.57136272  .00000163  00000+0  15205-3 0  9993
2 21876  82.9246 139.1574 0033248 284.3389 190.3370 13.75922501666639
SL-8 R/B                
1 21938U 92020B   25122.45752703  .00000129  00000+0  11794-3 0  9997
2 21938  82.9340  24.9072 0030472  86.5605  86.3592 13.75498443658348
USA 81                  
1 21949U 92023A   25122.49612948  .00000322  00000+0  11226-3 0  9997
2 21949  85.0045 310.9550 0001391  70.8778 289.2565 14.32228120 50246
COSMOS 2219             
1 22219U 92076A   25122.61872243  .00000405  00000+0  23748-3 0  9990
2 22219  71.0598 308.3120 0019345 311.5174  48.4288 14.14021842674401
SL-16 R/B               
1 22220U 92076B   25122.43266124  .00000234  00000+0  14089-3 0  9995
2 22220  70.9974 124.0003 0014160 217.4220 292.5381 14.16798193677746
COSMOS 2221             
1 22236U 92080A   25122.62242901  .00003367  00000+0  30723-3 0  9998
2 22236  82.5064 216.5857 0015641 152.5930 207.6119 14.94722605734301
SL-16 R/B               
1 22285U 92093B   25122.43067704  .00000081  00000+0  65953-4 0  9995
2 22285  71.0212 297.6486 0002543  37.4221 322.7079 14.15393477669116
COSMOS 2228             
1 22286U 92094A   25122.62689941  .00003373  00000+0  30130-3 0  9996
2 22286  82.5190 174.7113 0016918 268.1704  91.7580 14.95547706729549
SL-16 R/B               
1 22566U 93016B   25122.44037107 -.00000176  00000+0 -65775-4 0  9997
2 22566  71.0061 148.8702 0007962  72.6815 287.5178 14.15258692658135
COSMOS 2242             
1 22626U 93024A   25122.62069869  .00003398  00000+0  30793-3 0  9991
2 22626  82.5215 203.7972 0015199 270.4754  89.4726 14.95008002733892
SL-16 R/B               
1 22803U 93059B   25122.63003162  .00000164  00000+0  10486-3 0  9996
2 22803  70.9894 307.0568 0018471 318.6402  41.3322 14.17167309635466
ARIANE 40 R/B           
1 22830U 93061H   25122.57795650  .00000441  00000+0  17812-3 0  9990
2 22830  98.5284 191.8732 0011865 122.2548 237.9788 14.32637504649557
COSMOS 2278             
1 23087U 94023A   25122.40292767  .00000221  00000+0  14036-3 0  9998
2 23087  71.0521 106.3213 0007700 157.9157 202.2299 14.14294483600791
SL-16 R/B               
1 23088U 94023B   25122.38210868 -.00000209  00000+0 -83473-4 0  9998
2 23088  71.0018   4.6334 0002103   4.4685 355.6456 14.14961447602051
SL-16 R/B               
1 23343U 94074B   25122.63117834  .00000852  00000+0  12199-3 0  9993
2 23343  97.7432 160.4885 0007466 143.8676 328.8251 14.78993358641264
SL-16 R/B               
1 23405U 94077B   25122.62646860  .00000336  00000+0  19628-3 0  9991
2 23405  70.9822 286.8760 0004715 273.4460  86.6123 14.15514991572217
ARIANE 40+ R/B          
1 23561U 95021B   25122.43539100  .00000574  00000+0  19801-3 0  9998
2 23561  98.4850 192.4367 0006606   5.2031   5.2795 14.39499919574466
SL-16 R/B               
1 23705U 95058B   25122.40589063 -.00000196  00000+0 -75760-4 0  9997
2 23705  71.0192 113.7642 0014631 239.8969 120.0704 14.15445338523804
SL-16 R/B               
1 24298U 96051B   25122.40841441 -.00000191  00000+0 -76444-4 0  9995
2 24298  70.7688 113.9933 0017828 239.0154 120.9215 14.12426688477697
ORBVIEW 2 (SEASTAR)     
1 24883U 97037A   25122.44505473  .00000590  00000+0  22233-3 0  9993
2 24883  98.8202 274.2484 0001213 240.5489 119.5575 14.35221827463827
SL-16 R/B               
1 25400U 98043G   25122.47641448  .00000160  00000+0  85965-4 0  9998
2 25400  98.7850  69.4606 0009527 191.1499 168.9471 14.25962761394632
SL-16 R/B               
1 25407U 98045B   25122.42799703  .00000142  00000+0  95772-4 0  9997
2 25407  71.0092 116.1208 0006238 156.3595 203.7816 14.16137987383032
ISS (ZARYA)             
1 25544U 98067A   25122.54440123  .00015063  00000+0  27814-3 0  9994
2 25544  51.6345 173.1350 0002187  74.2134 285.9096 15.49297959508085
CZ-4B R/B               
1 25732U 99025C   25122.61858745  .00000193  00000+0  11410-3 0  9992
2 25732  98.7035 168.4947 0037649 157.5016 317.4476 14.18179965344077
OKEAN-O                 
1 25860U 99039A   25122.58704989  .00001238  00000+0  17172-3 0  9997
2 25860  97.9868 179.8561 0000888  99.0364 261.0948 14.79731972388371
SL-16 R/B               
1 25861U 99039B   25122.60056467  .00001078  00000+0  14523-3 0  9991
2 25861  98.0394 176.3442 0014932 180.8228 179.2962 14.81220744390801
DELTA 2 R/B             
1 25876U 99041E   25122.39239877  .00001497  00000+0  28095-3 0  9998
2 25876  51.7607 103.3493 0507816 150.4802 212.5850 14.10652904319071
HELIOS 1B               
1 25977U 99064A   25122.61839533  .00002613  00000+0  30294-3 0  9990
2 25977  98.2000  10.5637 0001828  50.8884 309.2493 14.86355959639031
TERRA                   
1 25994U 99068A   25122.62233972  .00000842  00000+0  18207-3 0  9991
2 25994  98.0012 182.1271 0003696  89.0371  29.8120 14.60659918349664
SL-16 R/B               
1 26070U 00006B   25122.50423687  .00000296  00000+0  17485-3 0  9992
2 26070  71.0040  32.1193 0018453 292.2509  67.6657 14.15768844304516
TITAN 4B R/B            
1 26474U 00047B   25122.44727860  .00005275  00000+0  35418-3 0  9996
2 26474  67.9901 193.7255 0041594  24.4164 335.8942 15.06893405345987
ENVISAT                 
1 27386U 02009A   25122.58310008  .00000251  00000+0  95267-4 0  9994
2 27386  98.3307  79.4516 0001184  87.6126 331.3046 14.38905713214439
IDEFIX & ARIANE 42P R/B 
1 27422U 02021B   25122.39146804  .00000601  00000+0  24602-3 0  9992
2 27422  98.5592  60.3482 0012562  29.2818 330.9067 14.30764998199509
AQUA                    
1 27424U 02022A   25122.62446433  .00001910  00000+0  39741-3 0  9996
2 27424  98.3749  80.4140 0001540 109.5300  63.4926 14.61208607223299
CZ-4B R/B               
1 27432U 02024C   25122.63570676  .00000100  00000+0  74782-4 0  9990
2 27432  98.9271 171.7702 0050165 184.6064 289.2619 14.14477124185261
MIDORI II (ADEOS-II)    
1 27597U 02056A   25122.60129056  .00000645  00000+0  27283-3 0  9993
2 27597  98.7350  74.8307 0001382 128.2367 231.8938 14.29015432165867
H-2A R/B                
1 27601U 02056E   25122.50371471  .00000752  00000+0  27924-3 0  9999
2 27601  98.2762  90.6452 0070823  10.2918  98.8933 14.33478348169527
